{"fetched_at":"2026-03-30T06:02:59Z","count":15439,"tles":[{"name":"STARLINK-31358","line1":"1 58977U 24031N   26087.73799637  .00010493  00000+0  36586-3 0  9997","line2":"2 58977  53.1579 207.9163 0001205  70.5049 289.6082 15.30202100119436","category":"Starlink"}]}