{
  "norad_id": 58977,
  "name": "STARLINK-31358",
  "history": [
    {
      "epoch": "2026-03-28T17:42:42.886368",
      "apogee_km": 476.0350385745742,
      "perigee_km": 474.3825598354697,
      "latitude_deg": -50.02783078186033,
      "longitude_deg": 148.5476515199989,
      "semi_major_axis_km": 6853.345799205022,
      "eccentricity": 0.00012056,
      "inclination_deg": 53.1579,
      "raan_deg": 207.9163,
      "arg_perigee_deg": 70.5049,
      "mean_anomaly_deg": 289.6082,
      "mean_motion_rev_day": 15.302021
    }
  ]
}